OBJECT_NAME,OBJECT_ID,EPOCH,MEAN_MOTION,ECCENTRICITY,INCLINATION,RA_OF_ASC_NODE,ARG_OF_PERICENTER,MEAN_ANOMALY,EPHEMERIS_TYPE,CLASSIFICATION_TYPE,NORAD_CAT_ID,ELEMENT_SET_NO,REV_AT_EPOCH,BSTAR,MEAN_MOTION_DOT,MEAN_MOTION_DDOT
STARLINK-33687,2025-070AB,2025-10-13T22:12:54.125280,15.27554672,.00006646,43.0001,8.3379,332.2559,27.8258,0,U,63485,999,3053,.14181981E-2,.38939E-3,0
STARLINK-33716,2025-070AC,2025-10-13T22:20:19.075776,15.27558404,.00004843,43.0004,8.4320,338.2651,21.8180,0,U,63486,999,3053,.16593432E-2,.45652E-3,0
STARLINK-33754,2025-070AD,2025-10-13T22:49:54.340896,15.27563361,.00025222,43.0025,8.5726,271.7854,88.2709,0,U,63487,999,3053,.13237735E-2,.36328E-3,0
POSAT-2,2025-009DR,2025-10-13T22:09:45.177120,15.05939943,.00055803,97.5111,2.4536,265.6418,94.4172,0,U,63488,999,2949,.7323119E-3,.10608E-3,0
HERMES-6,2025-052BK,2025-10-13T23:25:21.822528,15.18820536,.00057024,97.4185,178.3938,327.4096,32.6786,0,U,63489,999,3240,.41520059E-3,.8583E-4,0
HYDRA-W,2025-052BL,2025-10-12T22:28:44.458752,15.32094284,.00063523,97.4105,179.2897,303.2555,56.8077,0,U,63490,999,3238,.22684053E-2,.70828E-3,0
UNICORN-2Q,2025-052BM,2025-10-13T10:47:06.698112,15.48301317,.00028263,97.4126,181.3677,298.6862,61.4104,0,U,63491,999,3256,.38011814E-2,.205699E-2,0
HADES-ICM,2025-052BN,2025-10-12T19:24:44.120736,15.31028346,.00070282,97.4113,179.0200,308.1170,51.9437,0,U,63492,999,3235,.21138491E-2,.63796E-3,0
STARLINK-33828,2025-071A,2025-10-13T21:19:35.037408,15.30139796,.00014914,53.1599,103.9674,78.7631,281.3538,0,U,63493,999,3024,-.5189238E-3,-.15668E-3,0
STARLINK-33819,2025-071B,2025-10-13T21:24:08.644608,15.30190943,.00016114,53.1594,103.9777,72.5668,287.5508,0,U,63494,999,3024,.89510131E-3,.26237E-3,0
STARLINK-33845,2025-071C,2025-10-13T22:30:03.008448,15.30198668,.00010289,53.1585,101.4200,98.1618,261.9500,0,U,63495,999,3028,.63744465E-3,.18567E-3,0
STARLINK-33829,2025-071D,2025-10-13T21:18:46.359648,15.30174870,.00014486,53.1597,101.8206,93.5473,266.5693,0,U,63496,999,3023,.14923208E-2,.44067E-3,0
STARLINK-33815,2025-071E,2025-10-13T21:44:37.518720,15.30190951,.00009925,53.1580,101.9333,78.0967,282.0145,0,U,63497,999,3029,.11443447E-2,.33677E-3,0
STARLINK-33833,2025-071F,2025-10-13T21:32:27.798144,15.30205023,.00008972,53.1589,101.8788,92.8294,267.2810,0,U,63498,999,3029,.15690502E-2,.46409E-3,0
STARLINK-33534,2025-071G,2025-10-13T21:26:23.368992,15.30202958,.00011061,53.1600,101.8525,82.0860,278.0267,0,U,63499,999,3027,.13887873E-2,.41004E-3,0
STARLINK-33838,2025-071H,2025-10-13T22:36:07.498944,15.30197204,.0001217,53.1587,101.4436,80.0263,280.0875,0,U,63500,999,3009,.9000081E-3,.26389E-3,0
STARLINK-33837,2025-071J,2025-10-13T21:53:44.444544,15.30199610,.00012025,53.1571,101.9717,88.3280,271.7858,0,U,63501,999,3023,.16366076E-2,.48428E-3,0
STARLINK-33818,2025-071K,2025-10-13T22:31:33.946176,15.30206862,.00010586,53.1588,101.4225,90.1211,269.9911,0,U,63502,999,3030,.84369377E-3,.24717E-3,0
STARLINK-33583,2025-071L,2025-10-13T22:29:27.134304,15.30197332,.00012818,53.1582,104.2522,84.5364,275.5783,0,U,63503,999,3027,.47931029E-3,.13862E-3,0
STARLINK-33811,2025-071M,2025-10-13T22:01:20.136288,15.30203949,.00011522,53.1568,102.0031,84.6215,275.4917,0,U,63504,999,3023,.13089259E-2,.38614E-3,0
STARLINK-33825,2025-071N,2025-10-13T22:17:53.344896,15.30194084,.00005318,53.1570,101.3623,95.5131,264.5930,0,U,63505,999,3030,.18046003E-2,.53463E-3,0
STARLINK-33792,2025-071P,2025-10-13T22:23:58.422912,15.30197721,.00010366,53.1576,101.3906,90.3479,269.7641,0,U,63506,999,3025,.64723571E-3,.18857E-3,0
STARLINK-33843,2025-071Q,2025-10-13T21:17:15.612000,15.30198793,.0001008,53.1600,101.7778,80.0204,280.0911,0,U,63507,999,3027,.6157028E-3,.1792E-3,0
STARLINK-33809,2025-071R,2025-10-13T22:34:35.971104,15.30196512,.00014264,53.1588,101.4001,84.7505,275.3658,0,U,63508,999,3024,.50533796E-3,.14635E-3,0
STARLINK-33678,2025-071S,2025-10-13T21:23:21.691392,15.30178023,.00010899,53.1594,101.8010,97.4038,262.7087,0,U,63509,999,3002,.76379804E-3,.22315E-3,0
STARLINK-33764,2025-071T,2025-10-13T22:05:53.175840,15.30204074,.00010421,53.1576,101.9865,87.4569,272.6551,0,U,63510,999,3027,.13496024E-2,.39832E-3,0
STARLINK-33804,2025-071U,2025-10-13T21:47:39.025248,15.30205685,.00009486,53.1580,101.9055,69.9260,290.1843,0,U,63511,999,2992,.1297624E-2,.38278E-3,0
STARLINK-33751,2025-071V,2025-10-13T21:38:32.364672,15.30218216,.00014036,53.1575,101.8661,109.5915,250.5237,0,U,63512,999,3027,.13547969E-2,.40005E-3,0
STARLINK-33750,2025-071W,2025-10-13T21:43:06.652704,15.30173310,.00016624,53.1576,101.8857,56.9538,303.1622,0,U,63513,999,3027,.18208849E-2,.53918E-3,0
STARLINK-33786,2025-071X,2025-10-13T21:55:14.642688,15.30186056,.00012521,53.1575,101.9366,85.2861,274.8283,0,U,63514,999,2991,-.69929931E-4,-.2429E-4,0
