STARLINK-33687          
1 63485U 25070AB  25286.92562645  .00038939  00000+0  14182-2 0  9991
2 63485  43.0001   8.3379 0000664 332.2559  27.8258 15.27554672 30538
STARLINK-33716          
1 63486U 25070AC  25286.93077634  .00045652  00000+0  16593-2 0  9990
2 63486  43.0004   8.4320 0000484 338.2651  21.8180 15.27558404 30533
STARLINK-33754          
1 63487U 25070AD  25286.95132339  .00036328  00000+0  13238-2 0  9990
2 63487  43.0025   8.5726 0002522 271.7854  88.2709 15.27563361 30531
POSAT-2                 
1 63488U 25009DR  25286.92343955  .00010608  00000+0  73231-3 0  9991
2 63488  97.5111   2.4536 0005580 265.6418  94.4172 15.05939943 29494
HERMES-6                
1 63489U 25052BK  25286.97594702  .00008583  00000+0  41520-3 0  9998
2 63489  97.4185 178.3938 0005702 327.4096  32.6786 15.18820536 32400
HYDRA-W                 
1 63490U 25052BL  25285.93662568  .00070828  00000+0  22684-2 0  9991
2 63490  97.4105 179.2897 0006352 303.2555  56.8077 15.32094284 32389
UNICORN-2Q              
1 63491U 25052BM  25286.44938308  .00205699  00000+0  38012-2 0  9995
2 63491  97.4126 181.3677 0002826 298.6862  61.4104 15.48301317 32561
HADES-ICM               
1 63492U 25052BN  25285.80884399  .00063796  00000+0  21138-2 0  9996
2 63492  97.4113 179.0200 0007028 308.1170  51.9437 15.31028346 32352
STARLINK-33828          
1 63493U 25071A   25286.88859997 -.00015668  00000+0 -51892-3 0  9991
2 63493  53.1599 103.9674 0001491  78.7631 281.3538 15.30139796 30249
STARLINK-33819          
1 63494U 25071B   25286.89176672  .00026237  00000+0  89510-3 0  9995
2 63494  53.1594 103.9777 0001611  72.5668 287.5508 15.30190943 30241
STARLINK-33845          
1 63495U 25071C   25286.93753482  .00018567  00000+0  63744-3 0  9999
2 63495  53.1585 101.4200 0001028  98.1618 261.9500 15.30198668 30281
STARLINK-33829          
1 63496U 25071D   25286.88803657  .00044067  00000+0  14923-2 0  9992
2 63496  53.1597 101.8206 0001448  93.5473 266.5693 15.30174870 30237
STARLINK-33815          
1 63497U 25071E   25286.90598980  .00033677  00000+0  11443-2 0  9995
2 63497  53.1580 101.9333 0000992  78.0967 282.0145 15.30190951 30290
STARLINK-33833          
1 63498U 25071F   25286.89754396  .00046409  00000+0  15691-2 0  9995
2 63498  53.1589 101.8788 0000897  92.8294 267.2810 15.30205023 30295
STARLINK-33534          
1 63499U 25071G   25286.89332603  .00041004  00000+0  13888-2 0  9991
2 63499  53.1600 101.8525 0001106  82.0860 278.0267 15.30202958 30271
STARLINK-33838          
1 63500U 25071H   25286.94175346  .00026389  00000+0  90001-3 0  9991
2 63500  53.1587 101.4436 0001217  80.0263 280.0875 15.30197204 30098
STARLINK-33837          
1 63501U 25071J   25286.91231996  .00048428  00000+0  16366-2 0  9992
2 63501  53.1571 101.9717 0001202  88.3280 271.7858 15.30199610 30230
STARLINK-33818          
1 63502U 25071K   25286.93858734  .00024717  00000+0  84369-3 0  9994
2 63502  53.1588 101.4225 0001058  90.1211 269.9911 15.30206862 30307
STARLINK-33583          
1 63503U 25071L   25286.93711961  .00013862  00000+0  47931-3 0  9998
2 63503  53.1582 104.2522 0001281  84.5364 275.5783 15.30197332 30274
STARLINK-33811          
1 63504U 25071M   25286.91759417  .00038614  00000+0  13089-2 0  9993
2 63504  53.1568 102.0031 0001152  84.6215 275.4917 15.30203949 30239
STARLINK-33825          
1 63505U 25071N   25286.92908964  .00053463  00000+0  18046-2 0  9995
2 63505  53.1570 101.3623 0000531  95.5131 264.5930 15.30194084 30301
STARLINK-33792          
1 63506U 25071P   25286.93331508  .00018857  00000+0  64724-3 0  9994
2 63506  53.1576 101.3906 0001036  90.3479 269.7641 15.30197721 30252
STARLINK-33843          
1 63507U 25071Q   25286.88698625  .00017920  00000+0  61570-3 0  9991
2 63507  53.1600 101.7778 0001008  80.0204 280.0911 15.30198793 30271
STARLINK-33809          
1 63508U 25071R   25286.94069411  .00014635  00000+0  50534-3 0  9992
2 63508  53.1588 101.4001 0001426  84.7505 275.3658 15.30196512 30241
STARLINK-33678          
1 63509U 25071S   25286.89122328  .00022315  00000+0  76380-3 0  9995
2 63509  53.1594 101.8010 0001089  97.4038 262.7087 15.30178023 30029
STARLINK-33764          
1 63510U 25071T   25286.92075435  .00039832  00000+0  13496-2 0  9997
2 63510  53.1576 101.9865 0001042  87.4569 272.6551 15.30204074 30276
STARLINK-33804          
1 63511U 25071U   25286.90809057  .00038278  00000+0  12976-2 0  9996
2 63511  53.1580 101.9055 0000948  69.9260 290.1843 15.30205685 29928
STARLINK-33751          
1 63512U 25071V   25286.90176348  .00040005  00000+0  13548-2 0  9994
2 63512  53.1575 101.8661 0001403 109.5915 250.5237 15.30218216 30271
STARLINK-33750          
1 63513U 25071W   25286.90493811  .00053918  00000+0  18209-2 0  9998
2 63513  53.1576 101.8857 0001662  56.9538 303.1622 15.30173310 30271
STARLINK-33786          
1 63514U 25071X   25286.91336392 -.00002429  00000+0 -69930-4 0  9992
2 63514  53.1575 101.9366 0001252  85.2861 274.8283 15.30186056 29913
